[{"OBJECT_NAME":"STARLINK-30455","OBJECT_ID":"2023-148H","EPOCH":"2026-03-09T04:56:40.190208","MEAN_MOTION":15.30188282,"ECCENTRICITY":0.00011754,"INCLINATION":53.1624,"RA_OF_ASC_NODE":26.7281,"ARG_OF_PERICENTER":82.8128,"MEAN_ANOMALY":277.3006,"EPHEMERIS_TYPE":0,"CLASSIFICATION_TYPE":"U","NORAD_CAT_ID":57942,"ELEMENT_SET_NO":999,"REV_AT_EPOCH":13834,"BSTAR":-1.3747476e-5,"MEAN_MOTION_DOT":-7.66e-6,"MEAN_MOTION_DDOT":0},{"OBJECT_NAME":"CZ-4B DEB","OBJECT_ID":"1999-057H","EPOCH":"2026-03-09T17:25:29.363520","MEAN_MOTION":15.25756771,"ECCENTRICITY":0.00339549,"INCLINATION":98.6728,"RA_OF_ASC_NODE":149.1557,"ARG_OF_PERICENTER":175.409,"MEAN_ANOMALY":184.7463,"EPHEMERIS_TYPE":0,"CLASSIFICATION_TYPE":"U","NORAD_CAT_ID":26121,"ELEMENT_SET_NO":999,"REV_AT_EPOCH":41150,"BSTAR":0.00075758105,"MEAN_MOTION_DOT":0.00019602,"MEAN_MOTION_DDOT":0}]
